[{"OBJECT_NAME":"STARLINK-2627","OBJECT_ID":"2021-044BB","EPOCH":"2026-03-09T23:19:18.698016","MEAN_MOTION":15.29341242,"ECCENTRICITY":0.0001376,"INCLINATION":53.1564,"RA_OF_ASC_NODE":63.6251,"ARG_OF_PERICENTER":81.5961,"MEAN_ANOMALY":278.5195,"EPHEMERIS_TYPE":0,"CLASSIFICATION_TYPE":"U","NORAD_CAT_ID":48687,"ELEMENT_SET_NO":999,"REV_AT_EPOCH":26454,"BSTAR":2.6251083e-5,"MEAN_MOTION_DOT":4.01e-6,"MEAN_MOTION_DDOT":0},{"OBJECT_NAME":"TEVEL2-5","OBJECT_ID":"2025-052E","EPOCH":"2026-03-09T23:11:54.246048","MEAN_MOTION":15.30817434,"ECCENTRICITY":0.00047002,"INCLINATION":97.4013,"RA_OF_ASC_NODE":325.3677,"ARG_OF_PERICENTER":95.3936,"MEAN_ANOMALY":264.7842,"EPHEMERIS_TYPE":0,"CLASSIFICATION_TYPE":"U","NORAD_CAT_ID":63214,"ELEMENT_SET_NO":999,"REV_AT_EPOCH":5491,"BSTAR":0.00071764727,"MEAN_MOTION_DOT":0.00021339,"MEAN_MOTION_DDOT":0}]
